{
    "links": {
        "self": "http://www.neowsapp.com/rest/v1/neo/3518217?api_key=iIulBulltgU6a56xZRHN4H3l9WmuAYTsLGpBGhQ2"
    },
    "id": "3518217",
    "neo_reference_id": "3518217",
    "name": "(2010 HP20)",
    "designation": "2010 HP20",
    "nasa_jpl_url": "http://ssd.jpl.nasa.gov/sbdb.cgi?sstr=3518217",
    "absolute_magnitude_h": 27.5,
    "estimated_diameter": {
        "kilometers": {
            "estimated_diameter_min": 0.008405334,
            "estimated_diameter_max": 0.0187948982
        },
        "meters": {
            "estimated_diameter_min": 8.4053340207,
            "estimated_diameter_max": 18.7948982439
        },
        "miles": {
            "estimated_diameter_min": 0.0052228308,
            "estimated_diameter_max": 0.0116786047
        },
        "feet": {
            "estimated_diameter_min": 27.5765560686,
            "estimated_diameter_max": 61.6630539546
        }
    },
    "is_potentially_hazardous_asteroid": false,
    "close_approach_data": [
        {
            "close_approach_date": "2010-04-18",
            "close_approach_date_full": "2010-Apr-18 11:38",
            "epoch_date_close_approach": 1271590680000,
            "relative_velocity": {
                "kilometers_per_second": "10.5638769306",
                "kilometers_per_hour": "38029.9569500459",
                "miles_per_hour": "23630.3363059882"
            },
            "miss_distance": {
                "astronomical": "0.0028571817",
                "lunar": "1.1114436813",
                "kilometers": "427428.296522979",
                "miles": "265591.6278119502"
            },
            "orbiting_body": "Moon"
        },
        {
            "close_approach_date": "2010-04-18",
            "close_approach_date_full": "2010-Apr-18 20:37",
            "epoch_date_close_approach": 1271623020000,
            "relative_velocity": {
                "kilometers_per_second": "10.7693023046",
                "kilometers_per_hour": "38769.4882963984",
                "miles_per_hour": "24089.8523250593"
            },
            "miss_distance": {
                "astronomical": "0.0015980861",
                "lunar": "0.6216554929",
                "kilometers": "239070.276636607",
                "miles": "148551.3814828966"
            },
            "orbiting_body": "Earth"
        }
    ],
    "orbital_data": {
        "orbit_id": "6",
        "orbit_determination_date": "2017-04-06 08:57:43",
        "first_observation_date": "2010-04-20",
        "last_observation_date": "2010-04-20",
        "data_arc_in_days": null,
        "observations_used": 12,
        "orbit_uncertainty": "9",
        "minimum_orbit_intersection": ".000882212",
        "jupiter_tisserand_invariant": "3.643",
        "epoch_osculation": "2455306.5",
        "eccentricity": ".5354800289160223",
        "semi_major_axis": "1.996597363816069",
        "inclination": "7.716388499838405",
        "ascending_node_longitude": "209.0896503680227",
        "orbital_period": "1030.467186397795",
        "perihelion_distance": ".9274593497061867",
        "perihelion_argument": "320.8933446599975",
        "aphelion_distance": "3.065735377925952",
        "perihelion_time": "2455275.532540775230",
        "mean_anomaly": "10.81867085927139",
        "mean_motion": ".3493561025057502",
        "equinox": "J2000",
        "orbit_class": {
            "orbit_class_type": "APO",
            "orbit_class_description": "Near-Earth asteroid orbits which cross the Earth’s orbit similar to that of 1862 Apollo",
            "orbit_class_range": "a (semi-major axis) > 1.0 AU; q (perihelion) < 1.017 AU"
        }
    },
    "is_sentry_object": false
}